SAUDISAT 2              
1 28371U 04025F   26185.26991954  .00000307  00000+0  79546-4 0  9993
2 28371  98.5512 185.6936 0023556 243.0600 116.8191 14.56693820168238
COSMOS 2407             
1 28380U 04028A   26184.78881469  .00000057  00000+0  42566-4 0  9995
2 28380  82.9595  62.5378 0038543 204.1814 228.5597 13.76335930102163
COSMOS 2414             
1 28521U 05002A   26184.82930672  .00000036  00000+0  16930-4 0  9994
2 28521  82.9488  31.0557 0038718 282.4757  77.2075 13.87927397 86123
INMARSAT 4-F1           
1 28628U 05009A   26184.90102463  .00000042  00000+0  00000+0 0  9990
2 28628   5.1885  42.7715 0002874  63.3071 318.3239  1.00271768 77849
SJ-7                    
1 28737U 05024A   26184.59622724  .00008571  00000+0  37976-3 0  9991
2 28737  97.7273 215.1431 0014548 340.9960  19.0731 15.21792411150521
CUBESAT XI-V            
1 28895U 05043F   26185.18512092  .00001743  00000+0  28127-3 0  9991
2 28895  98.3004 341.1656 0014785 147.6619 212.5497 14.72679968104254
HINODE (SOLAR-B)        
1 29479U 06041A   26185.28635490  .00000862  00000+0  15633-3 0  9997
2 29479  98.0545 201.1867 0016262 230.7441 129.2322 14.68647363 57389
SHIJIAN-6 02B (SJ-6 02B)
1 29506U 06046B   26185.34109259  .00001468  00000+0  11827-3 0  9993
2 29506  97.7147 214.2940 0014749  11.2798 348.8754 15.01419390 73310
DMSP 5D-3 F17 (USA 191) 
1 29522U 06050A   26185.28181523  .00000050  00000+0  48373-4 0  9996
2 29522  98.7381 191.5022 0010385  13.9923 346.1537 14.14995289 14840
LAPAN-TUBSAT            
1 29709U 07001A   26185.29078699  .00000806  00000+0  98819-4 0  9999
2 29709  98.1344 184.9009 0013252 125.9217 234.3229 14.85968083 53699
HAIYANG-1B              
1 31113U 07010A   26185.20531475  .00000113  00000+0  58815-4 0  9991
2 31113  98.3505 166.3911 0014118 146.3401 213.8683 14.31031222  3072
COSMO-SKYMED 2          
1 32376U 07059A   26185.30870976  .00000482  00000+0  67110-4 0  9996
2 32376  97.8890   8.6585 0001330  91.0749 269.0616 14.82160003  4541
CARTOSAT-2A             
1 32783U 08021A   26185.29550838  .00000897  00000+0  12725-3 0  9999
2 32783  97.7619 233.4198 0013157  59.4813 300.7695 14.79264788981331
CUTE-1.7+APD II (CO-65) 
1 32785U 08021C   26185.21831418  .00006983  00000+0  43805-3 0  9994
2 32785  97.8289 166.9933 0007959 343.0118  17.0843 15.09621805987764
SEEDS II (CO-66)        
1 32791U 08021J   26184.45375337  .00018577  00000+0  57884-3 0  9993
2 32791  97.7521 183.1342 0001590 184.9877 175.1349 15.33316385989785
YUBILEINY (RS30)        
1 32953U 08025A   26185.24028914  .00000031  00000+0  15242-3 0  9999
2 32953  82.5051 344.8301 0018501 274.5078  85.3888 12.43180309821817
FENGYUN 3A              
1 32958U 08026A   26185.10432972  .00000096  00000+0  65911-4 0  9993
2 32958  98.6885 125.6212 0009887  80.3156 279.9137 14.19574733937806
HUANJING 1A (HJ-1A)     
1 33320U 08041A   26185.29270750  .00001087  00000+0  13616-3 0  9993
2 33320  97.6689 170.4705 0020650  82.4381 277.9179 14.84026776960946
HUANJING 1B (HJ-1B)     
1 33321U 08041B   26185.26960720  .00001786  00000+0  22156-3 0  9999
2 33321  97.6526 173.5683 0037573 125.6659 234.8063 14.83350595960948
SHIJIAN-6 03A (SJ-6 03A)
1 33408U 08053A   26185.32785046  .00004158  00000+0  21191-3 0  9995
2 33408  97.8396 219.2456 0009906 319.7611  40.2887 15.17329217965561
SHIJIAN-6 03B (SJ-6 03B)
1 33409U 08053B   26185.32751769  .00002060  00000+0  15179-3 0  9990
2 33409  97.8569 205.5023 0019048 347.7032  12.3726 15.04360125965323
